{
  "type": "FeatureCollection",
  "features": [
    {
      "type": "Feature",
      "properties": {
        "norad_id": 35043,
        "name": "COSMOS 2251 DEB",
        "group": "cosmos-2251-debris",
        "lat": -22.735474609726506,
        "lon": -144.98431081399158,
        "alt_km": 585.5282080270717,
        "timestamp": "2025-12-21T14:40:48.314717+00:00",
        "meta_object_name": "COSMOS 2251 DEB",
        "meta_object_id": "1993-036AHG",
        "meta_epoch": "2025-12-18T09:22:03.578880",
        "meta_mean_motion": 14.77234349,
        "meta_eccentricity": 0.00960967,
        "meta_inclination": 73.9519,
        "meta_ra_of_asc_node": 34.4369,
        "meta_arg_of_pericenter": 242.9214,
        "meta_mean_anomaly": 116.2132,
        "meta_ephemeris_type": 0,
        "meta_classification_type": "U",
        "meta_norad_cat_id": 35043,
        "meta_element_set_no": 999,
        "meta_rev_at_epoch": 67502,
        "meta_bstar": 0.0030540152,
        "meta_mean_motion_dot": 0.00023411,
        "meta_mean_motion_ddot": 0,
        "tle_line1": "1 35043U 93036AHG 25352.39031920  .00023411  00000+0  30540-2 0  9994",
        "tle_line2": "2 35043  73.9519  34.4369 0096096 242.9214 116.2132 14.77234349675024"
      },
      "geometry": {
        "type": "Point",
        "coordinates": [
          -144.98431081399158,
          -22.735474609726506
        ]
      }
    },
    {
      "type": "Feature",
      "properties": {
        "norad_id": 35045,
        "name": "COSMOS 2251 DEB",
        "group": "cosmos-2251-debris",
        "lat": 70.63023393167231,
        "lon": 160.80760568998627,
        "alt_km": 1018.760310130835,
        "timestamp": "2025-12-21T14:40:48.314727+00:00",
        "meta_object_name": "COSMOS 2251 DEB",
        "meta_object_id": "1993-036AHJ",
        "meta_epoch": "2025-12-20T12:28:28.167744",
        "meta_mean_motion": 14.00402013,
        "meta_eccentricity": 0.0183906,
        "meta_inclination": 73.7193,
        "meta_ra_of_asc_node": 38.9629,
        "meta_arg_of_pericenter": 279.9128,
        "meta_mean_anomaly": 78.1289,
        "meta_ephemeris_type": 0,
        "meta_classification_type": "U",
        "meta_norad_cat_id": 35045,
        "meta_element_set_no": 999,
        "meta_rev_at_epoch": 84752,
        "meta_bstar": 0.0005282,
        "meta_mean_motion_dot": 8.78e-06,
        "meta_mean_motion_ddot": 0,
        "tle_line1": "1 35045U 93036AHJ 25354.51977046  .00000878  00000+0  52820-3 0  9998",
        "tle_line2": "2 35045  73.7193  38.9629 0183906 279.9128  78.1289 14.00402013847527"
      },
      "geometry": {
        "type": "Point",
        "coordinates": [
          160.80760568998627,
          70.63023393167231
        ]
      }
    },
    {
      "type": "Feature",
      "properties": {
        "norad_id": 35060,
        "name": "COSMOS 2251 DEB",
        "group": "cosmos-2251-debris",
        "lat": -58.30196476542652,
        "lon": 75.51068483892851,
        "alt_km": 755.4777378763538,
        "timestamp": "2025-12-21T14:40:48.314738+00:00",
        "meta_object_name": "COSMOS 2251 DEB",
        "meta_object_id": "1993-036AHP",
        "meta_epoch": "2025-12-17T09:37:48.798336",
        "meta_mean_motion": 14.41611034,
        "meta_eccentricity": 0.00186104,
        "meta_inclination": 74.0362,
        "meta_ra_of_asc_node": 235.6937,
        "meta_arg_of_pericenter": 321.6138,
        "meta_mean_anomaly": 38.3692,
        "meta_ephemeris_type": 0,
        "meta_classification_type": "U",
        "meta_norad_cat_id": 35060,
        "meta_element_set_no": 999,
        "meta_rev_at_epoch": 87309,
        "meta_bstar": 0.00026105938,
        "meta_mean_motion_dot": 8.25e-06,
        "meta_mean_motion_ddot": 0,
        "tle_line1": "1 35060U 93036AHP 25351.40125924  .00000825  00000+0  26106-3 0  9990",
        "tle_line2": "2 35060  74.0362 235.6937 0018610 321.6138  38.3692 14.41611034873096"
      },
      "geometry": {
        "type": "Point",
        "coordinates": [
          75.51068483892851,
          -58.30196476542652
        ]
      }
    },
    {
      "type": "Feature",
      "properties": {
        "norad_id": 35061,
        "name": "COSMOS 2251 DEB",
        "group": "cosmos-2251-debris",
        "lat": -59.87947988456699,
        "lon": 138.13234728295538,
        "alt_km": 699.3372784793346,
        "timestamp": "2025-12-21T14:40:48.314748+00:00",
        "meta_object_name": "COSMOS 2251 DEB",
        "meta_object_id": "1993-036AHQ",
        "meta_epoch": "2025-12-21T02:07:20.346816",
        "meta_mean_motion": 14.67890095,
        "meta_eccentricity": 0.00394924,
        "meta_inclination": 74.0464,
        "meta_ra_of_asc_node": 289.5997,
        "meta_arg_of_pericenter": 38.0784,
        "meta_mean_anomaly": 322.3165,
        "meta_ephemeris_type": 0,
        "meta_classification_type": "U",
        "meta_norad_cat_id": 35061,
        "meta_element_set_no": 999,
        "meta_rev_at_epoch": 88697,
        "meta_bstar": 0.00049175919,
        "meta_mean_motion_dot": 2.814e-05,
        "meta_mean_motion_ddot": 0,
        "tle_line1": "1 35061U 93036AHQ 25355.08842994  .00002814  00000+0  49176-3 0  9994",
        "tle_line2": "2 35061  74.0464 289.5997 0039492  38.0784 322.3165 14.67890095886977"
      },
      "geometry": {
        "type": "Point",
        "coordinates": [
          138.13234728295538,
          -59.87947988456699
        ]
      }
    },
    {
      "type": "Feature",
      "properties": {
        "norad_id": 35062,
        "name": "COSMOS 2251 DEB",
        "group": "cosmos-2251-debris",
        "lat": -50.285728445682636,
        "lon": 57.24024375143929,
        "alt_km": 876.4115967440548,
        "timestamp": "2025-12-21T14:40:48.314758+00:00",
        "meta_object_name": "COSMOS 2251 DEB",
        "meta_object_id": "1993-036AHR",
        "meta_epoch": "2025-12-20T22:03:28.302048",
        "meta_mean_motion": 14.22993492,
        "meta_eccentricity": 0.0126453,
        "meta_inclination": 74.0793,
        "meta_ra_of_asc_node": 78.5797,
        "meta_arg_of_pericenter": 75.845,
        "meta_mean_anomaly": 285.6708,
        "meta_ephemeris_type": 0,
        "meta_classification_type": "U",
        "meta_norad_cat_id": 35062,
        "meta_element_set_no": 999,
        "meta_rev_at_epoch": 85615,
        "meta_bstar": 0.0011493,
        "meta_mean_motion_dot": 2.786e-05,
        "meta_mean_motion_ddot": 0,
        "tle_line1": "1 35062U 93036AHR 25354.91907757  .00002786  00000+0  11493-2 0  9993",
        "tle_line2": "2 35062  74.0793  78.5797 0126453  75.8450 285.6708 14.22993492856157"
      },
      "geometry": {
        "type": "Point",
        "coordinates": [
          57.24024375143929,
          -50.285728445682636
        ]
      }
    },
    {
      "type": "Feature",
      "properties": {
        "norad_id": 35065,
        "name": "COSMOS 2251 DEB",
        "group": "cosmos-2251-debris",
        "lat": 1.8103702562690869,
        "lon": 178.29451990233633,
        "alt_km": 734.8933245426633,
        "timestamp": "2025-12-21T14:40:48.314768+00:00",
        "meta_object_name": "COSMOS 2251 DEB",
        "meta_object_id": "1993-036AHU",
        "meta_epoch": "2025-12-19T06:12:25.656192",
        "meta_mean_motion": 14.4574331,
        "meta_eccentricity": 0.0020018,
        "meta_inclination": 74.0185,
        "meta_ra_of_asc_node": 182.1668,
        "meta_arg_of_pericenter": 306.5523,
        "meta_mean_anomaly": 53.3791,
        "meta_ephemeris_type": 0,
        "meta_classification_type": "U",
        "meta_norad_cat_id": 35065,
        "meta_element_set_no": 999,
        "meta_rev_at_epoch": 68445,
        "meta_bstar": 0.00028971,
        "meta_mean_motion_dot": 1.002e-05,
        "meta_mean_motion_ddot": 0,
        "tle_line1": "1 35065U 93036AHU 25353.25863028  .00001002  00000+0  28971-3 0  9994",
        "tle_line2": "2 35065  74.0185 182.1668 0020018 306.5523  53.3791 14.45743310684450"
      },
      "geometry": {
        "type": "Point",
        "coordinates": [
          178.29451990233633,
          1.8103702562690869
        ]
      }
    },
    {
      "type": "Feature",
      "properties": {
        "norad_id": 35071,
        "name": "COSMOS 2251 DEB",
        "group": "cosmos-2251-debris",
        "lat": -73.25818157822938,
        "lon": 48.579479882617775,
        "alt_km": 600.9056762249056,
        "timestamp": "2025-12-21T14:40:48.314778+00:00",
        "meta_object_name": "COSMOS 2251 DEB",
        "meta_object_id": "1993-036AJA",
        "meta_epoch": "2025-12-15T18:34:31.974816",
        "meta_mean_motion": 15.0351885,
        "meta_eccentricity": 0.00682233,
        "meta_inclination": 73.9308,
        "meta_ra_of_asc_node": 167.1964,
        "meta_arg_of_pericenter": 62.71,
        "meta_mean_anomaly": 298.1014,
        "meta_ephemeris_type": 0,
        "meta_classification_type": "U",
        "meta_norad_cat_id": 35071,
        "meta_element_set_no": 999,
        "meta_rev_at_epoch": 67582,
        "meta_bstar": 0.00048026378,
        "meta_mean_motion_dot": 6.858e-05,
        "meta_mean_motion_ddot": 0,
        "tle_line1": "1 35071U 93036AJA 25349.77398119  .00006858  00000+0  48026-3 0  9994",
        "tle_line2": "2 35071  73.9308 167.1964 0068223  62.7100 298.1014 15.03518850675828"
      },
      "geometry": {
        "type": "Point",
        "coordinates": [
          48.579479882617775,
          -73.25818157822938
        ]
      }
    }
  ]
}